KUIPER-00141            
1 65966U 25228V   25308.57006232  .00020491  00000+0  60738-3 0  9996
2 65966  51.8802 204.4717 0005658 214.8876 145.1740 15.34804910  4554
KUIPER-00146            
1 65967U 25228W   25308.57053941  .00027529  00000+0  81204-3 0  9996
2 65967  51.8809 204.4823 0005803 215.6556 144.4042 15.34779120  4557
KUIPER-00149            
1 65968U 25228X   25308.56796751  .00023981  00000+0  70515-3 0  9990
2 65968  51.8804 204.4593 0005824 212.2579 147.8052 15.34957038  4552
KUIPER-00154            
1 65969U 25228Y   25308.56700402  .00037122  00000+0  10813-2 0  9995
2 65969  51.8799 204.4544 0005488 207.8123 152.2570 15.35026210  4558
KUIPER-00157            
1 65970U 25228Z   25308.57376344  .00028609  00000+0  84878-3 0  9995
2 65970  51.8810 204.5024 0005982 226.5429 133.5059 15.34575606  4555
STRIX-5                 
1 65971U 25229A   25308.66488834  .00004851  00000+0  37493-3 0  9999
2 65971  41.9272  90.1583 0038998  21.7890 338.4584 15.01738830  3188
ELECTRON R/B            
1 65972U 25229B   25307.80026377  .00004683  00000+0  36247-3 0  9994
2 65972  41.9268  94.9326 0039114  16.0549 344.1507 15.01728763  3037
ELECTRON KICK STAGE R/B 
1 65973U 25229C   25308.12131051  .00006829  00000+0  50919-3 0  9993
2 65973  41.9821  93.1233 0040204  18.3017 341.9246 15.02626717  3074
SDA_1664                
1 65974U 25230A   25308.58780058  .00000271  00000+0  23011-3 0  9991
2 65974  81.2993  59.9919 0003405  62.7117 297.4386 13.84696550  2720
SDA_1665                
1 65975U 25230B   25308.57749972  .00000309  00000+0  26134-3 0  9992
2 65975  81.3031  59.9892 0005013 104.8779 255.2934 13.85426635  2721
SDA_1666                
1 65976U 25230C   25308.58880837  .00000242  00000+0  20505-3 0  9992
2 65976  81.3002  59.9954 0003054  59.9391 300.2068 13.84625218  2728
SDA_1667                
1 65977U 25230D   25308.58526341  .00000289  00000+0  24550-3 0  9995
2 65977  81.2998  59.9896 0003931  73.2519 286.9069 13.84876026  2728
