CCSDS_OMM_VERS = 2.0
CREATION_DATE  = 
ORIGINATOR     = 

OBJECT_NAME    = KUIPER-00141
OBJECT_ID      = 2025-228V
CENTER_NAME    = EARTH
REF_FRAME      = TEME
TIME_SYSTEM    = UTC
MEAN_ELEMENT_THEORY = SGP/SGP4

EPOCH          = 2025-11-04T13:40:53.384448
MEAN_MOTION    = 15.34804910
ECCENTRICITY   = .00056585
INCLINATION    = 51.8802
RA_OF_ASC_NODE = 204.4717
ARG_OF_PERICENTER = 214.8876
MEAN_ANOMALY   = 145.1740

EPHEMERIS_TYPE = 0
CLASSIFICATION_TYPE = U
NORAD_CAT_ID   = 65966
ELEMENT_SET_NO = 999
REV_AT_EPOCH   = 455
BSTAR          = .60737548E-3
MEAN_MOTION_DOT = .20491E-3
MEAN_MOTION_DDOT = 0

CCSDS_OMM_VERS = 2.0
CREATION_DATE  = 
ORIGINATOR     = 

OBJECT_NAME    = KUIPER-00146
OBJECT_ID      = 2025-228W
CENTER_NAME    = EARTH
REF_FRAME      = TEME
TIME_SYSTEM    = UTC
MEAN_ELEMENT_THEORY = SGP/SGP4

EPOCH          = 2025-11-04T13:41:34.605024
MEAN_MOTION    = 15.34779120
ECCENTRICITY   = .00058037
INCLINATION    = 51.8809
RA_OF_ASC_NODE = 204.4823
ARG_OF_PERICENTER = 215.6556
MEAN_ANOMALY   = 144.4042

EPHEMERIS_TYPE = 0
CLASSIFICATION_TYPE = U
NORAD_CAT_ID   = 65967
ELEMENT_SET_NO = 999
REV_AT_EPOCH   = 455
BSTAR          = .81204376E-3
MEAN_MOTION_DOT = .27529E-3
MEAN_MOTION_DDOT = 0

CCSDS_OMM_VERS = 2.0
CREATION_DATE  = 
ORIGINATOR     = 

OBJECT_NAME    = KUIPER-00149
OBJECT_ID      = 2025-228X
CENTER_NAME    = EARTH
REF_FRAME      = TEME
TIME_SYSTEM    = UTC
MEAN_ELEMENT_THEORY = SGP/SGP4

EPOCH          = 2025-11-04T13:37:52.392864
MEAN_MOTION    = 15.34957038
ECCENTRICITY   = .0005824
INCLINATION    = 51.8804
RA_OF_ASC_NODE = 204.4593
ARG_OF_PERICENTER = 212.2579
MEAN_ANOMALY   = 147.8052

EPHEMERIS_TYPE = 0
CLASSIFICATION_TYPE = U
NORAD_CAT_ID   = 65968
ELEMENT_SET_NO = 999
REV_AT_EPOCH   = 455
BSTAR          = .7051543E-3
MEAN_MOTION_DOT = .23981E-3
MEAN_MOTION_DDOT = 0

CCSDS_OMM_VERS = 2.0
CREATION_DATE  = 
ORIGINATOR     = 

OBJECT_NAME    = KUIPER-00154
OBJECT_ID      = 2025-228Y
CENTER_NAME    = EARTH
REF_FRAME      = TEME
TIME_SYSTEM    = UTC
MEAN_ELEMENT_THEORY = SGP/SGP4

EPOCH          = 2025-11-04T13:36:29.147328
MEAN_MOTION    = 15.35026210
ECCENTRICITY   = .00054882
INCLINATION    = 51.8799
RA_OF_ASC_NODE = 204.4544
ARG_OF_PERICENTER = 207.8123
MEAN_ANOMALY   = 152.2570

EPHEMERIS_TYPE = 0
CLASSIFICATION_TYPE = U
NORAD_CAT_ID   = 65969
ELEMENT_SET_NO = 999
REV_AT_EPOCH   = 455
BSTAR          = .10812787E-2
MEAN_MOTION_DOT = .37122E-3
MEAN_MOTION_DDOT = 0

CCSDS_OMM_VERS = 2.0
CREATION_DATE  = 
ORIGINATOR     = 

OBJECT_NAME    = KUIPER-00157
OBJECT_ID      = 2025-228Z
CENTER_NAME    = EARTH
REF_FRAME      = TEME
TIME_SYSTEM    = UTC
MEAN_ELEMENT_THEORY = SGP/SGP4

EPOCH          = 2025-11-04T13:46:13.161216
MEAN_MOTION    = 15.34575606
ECCENTRICITY   = .00059822
INCLINATION    = 51.8810
RA_OF_ASC_NODE = 204.5024
ARG_OF_PERICENTER = 226.5429
MEAN_ANOMALY   = 133.5059

EPHEMERIS_TYPE = 0
CLASSIFICATION_TYPE = U
NORAD_CAT_ID   = 65970
ELEMENT_SET_NO = 999
REV_AT_EPOCH   = 455
BSTAR          = .84878104E-3
MEAN_MOTION_DOT = .28609E-3
MEAN_MOTION_DDOT = 0

CCSDS_OMM_VERS = 2.0
CREATION_DATE  = 
ORIGINATOR     = 

OBJECT_NAME    = STRIX-5
OBJECT_ID      = 2025-229A
CENTER_NAME    = EARTH
REF_FRAME      = TEME
TIME_SYSTEM    = UTC
MEAN_ELEMENT_THEORY = SGP/SGP4

EPOCH          = 2025-11-04T15:57:26.352576
MEAN_MOTION    = 15.01738830
ECCENTRICITY   = .0038998
INCLINATION    = 41.9272
RA_OF_ASC_NODE = 90.1583
ARG_OF_PERICENTER = 21.7890
MEAN_ANOMALY   = 338.4584

EPHEMERIS_TYPE = 0
CLASSIFICATION_TYPE = U
NORAD_CAT_ID   = 65971
ELEMENT_SET_NO = 999
REV_AT_EPOCH   = 318
BSTAR          = .37493E-3
MEAN_MOTION_DOT = .4851E-4
MEAN_MOTION_DDOT = 0

CCSDS_OMM_VERS = 2.0
CREATION_DATE  = 
ORIGINATOR     = 

OBJECT_NAME    = ELECTRON R/B
OBJECT_ID      = 2025-229B
CENTER_NAME    = EARTH
REF_FRAME      = TEME
TIME_SYSTEM    = UTC
MEAN_ELEMENT_THEORY = SGP/SGP4

EPOCH          = 2025-11-03T19:12:22.789728
MEAN_MOTION    = 15.01728763
ECCENTRICITY   = .00391141
INCLINATION    = 41.9268
RA_OF_ASC_NODE = 94.9326
ARG_OF_PERICENTER = 16.0549
MEAN_ANOMALY   = 344.1507

EPHEMERIS_TYPE = 0
CLASSIFICATION_TYPE = U
NORAD_CAT_ID   = 65972
ELEMENT_SET_NO = 999
REV_AT_EPOCH   = 303
BSTAR          = .36246671E-3
MEAN_MOTION_DOT = .4683E-4
MEAN_MOTION_DDOT = 0

CCSDS_OMM_VERS = 2.0
CREATION_DATE  = 
ORIGINATOR     = 

OBJECT_NAME    = ELECTRON KICK STAGE R/B
OBJECT_ID      = 2025-229C
CENTER_NAME    = EARTH
REF_FRAME      = TEME
TIME_SYSTEM    = UTC
MEAN_ELEMENT_THEORY = SGP/SGP4

EPOCH          = 2025-11-04T02:54:41.228064
MEAN_MOTION    = 15.02626717
ECCENTRICITY   = .0040204
INCLINATION    = 41.9821
RA_OF_ASC_NODE = 93.1233
ARG_OF_PERICENTER = 18.3017
MEAN_ANOMALY   = 341.9246

EPHEMERIS_TYPE = 0
CLASSIFICATION_TYPE = U
NORAD_CAT_ID   = 65973
ELEMENT_SET_NO = 999
REV_AT_EPOCH   = 307
BSTAR          = .50918628E-3
MEAN_MOTION_DOT = .6829E-4
MEAN_MOTION_DDOT = 0

CCSDS_OMM_VERS = 2.0
CREATION_DATE  = 
ORIGINATOR     = 

OBJECT_NAME    = SDA_1664
OBJECT_ID      = 2025-230A
CENTER_NAME    = EARTH
REF_FRAME      = TEME
TIME_SYSTEM    = UTC
MEAN_ELEMENT_THEORY = SGP/SGP4

EPOCH          = 2025-11-04T14:06:25.970112
MEAN_MOTION    = 13.84696550
ECCENTRICITY   = .00034059
INCLINATION    = 81.2993
RA_OF_ASC_NODE = 59.9919
ARG_OF_PERICENTER = 62.7117
MEAN_ANOMALY   = 297.4386

EPHEMERIS_TYPE = 0
CLASSIFICATION_TYPE = U
NORAD_CAT_ID   = 65974
ELEMENT_SET_NO = 999
REV_AT_EPOCH   = 272
BSTAR          = .23010738E-3
MEAN_MOTION_DOT = .271E-5
MEAN_MOTION_DDOT = 0

CCSDS_OMM_VERS = 2.0
CREATION_DATE  = 
ORIGINATOR     = 

OBJECT_NAME    = SDA_1665
OBJECT_ID      = 2025-230B
CENTER_NAME    = EARTH
REF_FRAME      = TEME
TIME_SYSTEM    = UTC
MEAN_ELEMENT_THEORY = SGP/SGP4

EPOCH          = 2025-11-04T13:51:35.975808
MEAN_MOTION    = 13.85426635
ECCENTRICITY   = .00050132
INCLINATION    = 81.3031
RA_OF_ASC_NODE = 59.9892
ARG_OF_PERICENTER = 104.8779
MEAN_ANOMALY   = 255.2934

EPHEMERIS_TYPE = 0
CLASSIFICATION_TYPE = U
NORAD_CAT_ID   = 65975
ELEMENT_SET_NO = 999
REV_AT_EPOCH   = 272
BSTAR          = .26134245E-3
MEAN_MOTION_DOT = .309E-5
MEAN_MOTION_DDOT = 0

CCSDS_OMM_VERS = 2.0
CREATION_DATE  = 
ORIGINATOR     = 

OBJECT_NAME    = SDA_1666
OBJECT_ID      = 2025-230C
CENTER_NAME    = EARTH
REF_FRAME      = TEME
TIME_SYSTEM    = UTC
MEAN_ELEMENT_THEORY = SGP/SGP4

EPOCH          = 2025-11-04T14:07:53.043168
MEAN_MOTION    = 13.84625218
ECCENTRICITY   = .0003054
INCLINATION    = 81.3002
RA_OF_ASC_NODE = 59.9954
ARG_OF_PERICENTER = 59.9391
MEAN_ANOMALY   = 300.2068

EPHEMERIS_TYPE = 0
CLASSIFICATION_TYPE = U
NORAD_CAT_ID   = 65976
ELEMENT_SET_NO = 999
REV_AT_EPOCH   = 272
BSTAR          = .20504599E-3
MEAN_MOTION_DOT = .242E-5
MEAN_MOTION_DDOT = 0

CCSDS_OMM_VERS = 2.0
CREATION_DATE  = 
ORIGINATOR     = 

OBJECT_NAME    = SDA_1667
OBJECT_ID      = 2025-230D
CENTER_NAME    = EARTH
REF_FRAME      = TEME
TIME_SYSTEM    = UTC
MEAN_ELEMENT_THEORY = SGP/SGP4

EPOCH          = 2025-11-04T14:02:46.758624
MEAN_MOTION    = 13.84876026
ECCENTRICITY   = .00039319
INCLINATION    = 81.2998
RA_OF_ASC_NODE = 59.9896
ARG_OF_PERICENTER = 73.2519
MEAN_ANOMALY   = 286.9069

EPHEMERIS_TYPE = 0
CLASSIFICATION_TYPE = U
NORAD_CAT_ID   = 65977
ELEMENT_SET_NO = 999
REV_AT_EPOCH   = 272
BSTAR          = .24549889E-3
MEAN_MOTION_DOT = .289E-5
MEAN_MOTION_DDOT = 0

